TRANSIT 16 [?]          
1 02807U 67048A   22227.91686972  .00000071  00000+0  94769-4 0  9991
2 02807  89.6542  34.4260 0021273  33.7131 131.6393 13.50320155718798
TRANSIT 17 [?]          
1 02965U 67092A   22227.72464332  .00000083  00000+0  10627-3 0  9991
2 02965  89.2389 118.8857 0047897 161.1053 218.4846 13.53032101706659
TRANSIT 18 [?]          
1 03133U 68012A   22227.88867977  .00000070  00000+0  90247-4 0  9994
2 03133  90.0036 271.6232 0077201  89.3092  83.5083 13.51158734405117
NNSS 19 [?]             
1 04507U 70067A   22227.74403421  .00000067  00000+0  81793-4 0  9990
2 04507  89.9199 238.8790 0171218 211.8533 147.2176 13.50834099558168
NNSS O-20 [?]           
1 06909U 73081A   22227.83108253  .00000106  00000+0  96864-4 0  9991
2 06909  89.8169 276.3343 0158494 118.8396 242.8780 13.70688906637142
TRANSAT [?]             
1 10457U 77106A   22227.72054736  .00000066  00000+0  88228-4 0  9990
2 10457  89.6816 120.6208 0027094  95.2016 273.2050 13.48683748203658
NOVA I [?]              
1 12458U 81044A   22227.66391524  .00000052  00000+0  10248-3 0  9992
2 12458  89.8863 107.0432 0013218 209.1677 183.2239 13.23068512991174
NOVA 3 [?]              
1 15362U 84110A   22227.85187799  .00000010  00000+0  25224-5 0  9990
2 15362  90.0946  67.5363 0033712  79.1818 293.0364 13.22836757826363
OSCAR 30 [?]            
1 15935U 85066A   22227.86511737  .00000049  00000+0  76539-4 0  9997
2 15935  90.1739  78.9496 0166979 270.9497  98.7523 13.35760685802337
OSCAR 24 [?]            
1 15936U 85066B   22227.79665794  .00000042  00000+0  64194-4 0  9990
2 15936  90.1690  70.9010 0167517 276.9147  92.2252 13.35621006804248
POLAR BEAR [?]          
1 17070U 86088A   22227.76020108  .00000055  00000+0  45097-4 0  9992
2 17070  89.5614 234.8836 0038963 181.5340 351.7733 13.74874651792828
OSCAR 27 [?]            
1 18361U 87080A   22227.45499578  .00000060  00000+0  84433-4 0  9999
2 18361  90.3298  36.1828 0106306 104.3523 256.9454 13.44569206712245
OSCAR 29 [?]            
1 18362U 87080B   22227.91336771  .00000095  00000+0  14306-3 0  9995
2 18362  90.3311  36.5309 0107731 123.1271  42.1201 13.44156672711885
OSCAR 23 [?]            
1 19070U 88033A   22227.33946963  .00000055  00000+0  98303-4 0  9993
2 19070  90.3360 338.6493 0188529 320.3882  97.9041 13.27524908661267
OSCAR 32 [?]            
1 19071U 88033B   22227.31706674  .00000075  00000+0  13883-3 0  9996
2 19071  90.3359 338.7353 0186566 308.2512  74.5793 13.27704856661364
NOVA 11 [?]             
1 19223U 88052A   22227.61247514  .00000047  00000+0  90820-4 0  9998
2 19223  89.9710  80.7294 0032100 120.5949 246.0763 13.22748319648836
OSCAR 25 [?]            
1 19419U 88074A   22227.67369133  .00000047  00000+0  63320-4 0  9992
2 19419  90.0060  17.9098 0098224 111.7875 260.3410 13.42299930663384
OSCAR 31 [?]            
1 19420U 88074B   22227.68733738  .00000067  00000+0  97785-4 0  9995
2 19420  90.0070  18.0918 0096445 106.0020 265.8774 13.42310337663492
